W-SERIES 5              
1 66747U 25276CK  25354.84819693 -.02111308  00000+0 -13100+0 0  9990
2 66747  97.4421  66.4750 0019118  86.4579 273.8839 15.13415152  3355
TRANSPORTER-15 CL       
1 66748U 25276CL  25354.77398290  .00013271  00000+0  64758-3 0  9993
2 66748  97.4414  66.4189 0001905 231.8116 128.2947 15.18412807  3343
TRANSPORTER-15 CM       
1 66749U 25276CM  25354.77766653  .00004911  00000+0  24595-3 0  9992
2 66749  97.4409  66.4112 0001686 198.3638 161.7536 15.17841988  3347
TRANSPORTER-15 CN       
1 66750U 25276CN  25354.77478935  .00005559  00000+0  27661-3 0  9993
2 66750  97.4448  66.4290 0001925 156.7185 203.4137 15.18009468  3341
ICEYE-X58               
1 66751U 25276CP  25354.77791667  .00004082  00000+0  20534-3 0  9996
2 66751  97.4422  66.4188 0002170 216.0212 144.0876 15.17782016  3340
ICEYE-X59               
1 66752U 25276CQ  25354.64881328  .00003873  00000+0  19609-3 0  9995
2 66752  97.4415  66.2856 0001741 250.6828 109.4217 15.17584197  3325
ICEYE-X60               
1 66753U 25276CR  25354.91602269  .00005406  00000+0  27406-3 0  9999
2 66753  97.4419  66.5361 0001203 291.2550  68.8555 15.17364728  3363
ICEYE-X61               
1 66754U 25276CS  25354.64525729  .00003295  00000+0  16617-3 0  9991
2 66754  97.4416  66.2854 0002056 202.4059 157.7086 15.17826457  3325
ICEYE-X62               
1 66755U 25276CT  25354.64911448  .00003483  00000+0  17662-3 0  9999
2 66755  97.4418  66.2796 0000824 248.0203 112.0944 15.17600223  3329
TRANSPORTER-15 CU       
1 66756U 25276CU  25354.77617452  .00005690  00000+0  28376-3 0  9998
2 66756  97.4425  66.4198 0001356 161.4312 198.6972 15.17919312  3341
TRANSPORTER-15 CV       
1 66757U 25276CV  25354.77494525  .00005248  00000+0  26116-3 0  9992
2 66757  97.4433  66.4244 0001500 161.7349 198.3939 15.18033964  3348
TRANSPORTER-15 CW       
1 66758U 25276CW  25354.77468202  .00005173  00000+0  25739-3 0  9993
2 66758  97.4402  66.4156 0001162 139.7140 220.4180 15.18042688  3343
