CCSDS_OMM_VERS = 2.0
CREATION_DATE  = 
ORIGINATOR     = 

OBJECT_NAME    = W-SERIES 5
OBJECT_ID      = 2025-276CK
CENTER_NAME    = EARTH
REF_FRAME      = TEME
TIME_SYSTEM    = UTC
MEAN_ELEMENT_THEORY = SGP/SGP4

EPOCH          = 2025-12-20T20:21:24.214752
MEAN_MOTION    = 15.13415152
ECCENTRICITY   = .00191188
INCLINATION    = 97.4421
RA_OF_ASC_NODE = 66.4750
ARG_OF_PERICENTER = 86.4579
MEAN_ANOMALY   = 273.8839

EPHEMERIS_TYPE = 0
CLASSIFICATION_TYPE = U
NORAD_CAT_ID   = 66747
ELEMENT_SET_NO = 999
REV_AT_EPOCH   = 335
BSTAR          = -.13100013E+0
MEAN_MOTION_DOT = -.2111308E-1
MEAN_MOTION_DDOT = 0

CCSDS_OMM_VERS = 2.0
CREATION_DATE  = 
ORIGINATOR     = 

OBJECT_NAME    = TRANSPORTER-15 CL
OBJECT_ID      = 2025-276CL
CENTER_NAME    = EARTH
REF_FRAME      = TEME
TIME_SYSTEM    = UTC
MEAN_ELEMENT_THEORY = SGP/SGP4

EPOCH          = 2025-12-20T18:34:32.122560
MEAN_MOTION    = 15.18412807
ECCENTRICITY   = .00019051
INCLINATION    = 97.4414
RA_OF_ASC_NODE = 66.4189
ARG_OF_PERICENTER = 231.8116
MEAN_ANOMALY   = 128.2947

EPHEMERIS_TYPE = 0
CLASSIFICATION_TYPE = U
NORAD_CAT_ID   = 66748
ELEMENT_SET_NO = 999
REV_AT_EPOCH   = 334
BSTAR          = .64758443E-3
MEAN_MOTION_DOT = .13271E-3
MEAN_MOTION_DDOT = 0

CCSDS_OMM_VERS = 2.0
CREATION_DATE  = 
ORIGINATOR     = 

OBJECT_NAME    = TRANSPORTER-15 CM
OBJECT_ID      = 2025-276CM
CENTER_NAME    = EARTH
REF_FRAME      = TEME
TIME_SYSTEM    = UTC
MEAN_ELEMENT_THEORY = SGP/SGP4

EPOCH          = 2025-12-20T18:39:50.388192
MEAN_MOTION    = 15.17841988
ECCENTRICITY   = .00016863
INCLINATION    = 97.4409
RA_OF_ASC_NODE = 66.4112
ARG_OF_PERICENTER = 198.3638
MEAN_ANOMALY   = 161.7536

EPHEMERIS_TYPE = 0
CLASSIFICATION_TYPE = U
NORAD_CAT_ID   = 66749
ELEMENT_SET_NO = 999
REV_AT_EPOCH   = 334
BSTAR          = .24595088E-3
MEAN_MOTION_DOT = .4911E-4
MEAN_MOTION_DDOT = 0

CCSDS_OMM_VERS = 2.0
CREATION_DATE  = 
ORIGINATOR     = 

OBJECT_NAME    = TRANSPORTER-15 CN
OBJECT_ID      = 2025-276CN
CENTER_NAME    = EARTH
REF_FRAME      = TEME
TIME_SYSTEM    = UTC
MEAN_ELEMENT_THEORY = SGP/SGP4

EPOCH          = 2025-12-20T18:35:41.799840
MEAN_MOTION    = 15.18009468
ECCENTRICITY   = .00019255
INCLINATION    = 97.4448
RA_OF_ASC_NODE = 66.4290
ARG_OF_PERICENTER = 156.7185
MEAN_ANOMALY   = 203.4137

EPHEMERIS_TYPE = 0
CLASSIFICATION_TYPE = U
NORAD_CAT_ID   = 66750
ELEMENT_SET_NO = 999
REV_AT_EPOCH   = 334
BSTAR          = .27660741E-3
MEAN_MOTION_DOT = .5559E-4
MEAN_MOTION_DDOT = 0

CCSDS_OMM_VERS = 2.0
CREATION_DATE  = 
ORIGINATOR     = 

OBJECT_NAME    = ICEYE-X58
OBJECT_ID      = 2025-276CP
CENTER_NAME    = EARTH
REF_FRAME      = TEME
TIME_SYSTEM    = UTC
MEAN_ELEMENT_THEORY = SGP/SGP4

EPOCH          = 2025-12-20T18:40:12.000288
MEAN_MOTION    = 15.17782016
ECCENTRICITY   = .000217
INCLINATION    = 97.4422
RA_OF_ASC_NODE = 66.4188
ARG_OF_PERICENTER = 216.0212
MEAN_ANOMALY   = 144.0876

EPHEMERIS_TYPE = 0
CLASSIFICATION_TYPE = U
NORAD_CAT_ID   = 66751
ELEMENT_SET_NO = 999
REV_AT_EPOCH   = 334
BSTAR          = .20533939E-3
MEAN_MOTION_DOT = .4082E-4
MEAN_MOTION_DDOT = 0

CCSDS_OMM_VERS = 2.0
CREATION_DATE  = 
ORIGINATOR     = 

OBJECT_NAME    = ICEYE-X59
OBJECT_ID      = 2025-276CQ
CENTER_NAME    = EARTH
REF_FRAME      = TEME
TIME_SYSTEM    = UTC
MEAN_ELEMENT_THEORY = SGP/SGP4

EPOCH          = 2025-12-20T15:34:17.467392
MEAN_MOTION    = 15.17584197
ECCENTRICITY   = .00017417
INCLINATION    = 97.4415
RA_OF_ASC_NODE = 66.2856
ARG_OF_PERICENTER = 250.6828
MEAN_ANOMALY   = 109.4217

EPHEMERIS_TYPE = 0
CLASSIFICATION_TYPE = U
NORAD_CAT_ID   = 66752
ELEMENT_SET_NO = 999
REV_AT_EPOCH   = 332
BSTAR          = .19609428E-3
MEAN_MOTION_DOT = .3873E-4
MEAN_MOTION_DDOT = 0

CCSDS_OMM_VERS = 2.0
CREATION_DATE  = 
ORIGINATOR     = 

OBJECT_NAME    = ICEYE-X60
OBJECT_ID      = 2025-276CR
CENTER_NAME    = EARTH
REF_FRAME      = TEME
TIME_SYSTEM    = UTC
MEAN_ELEMENT_THEORY = SGP/SGP4

EPOCH          = 2025-12-20T21:59:04.360416
MEAN_MOTION    = 15.17364728
ECCENTRICITY   = .00012037
INCLINATION    = 97.4419
RA_OF_ASC_NODE = 66.5361
ARG_OF_PERICENTER = 291.2550
MEAN_ANOMALY   = 68.8555

EPHEMERIS_TYPE = 0
CLASSIFICATION_TYPE = U
NORAD_CAT_ID   = 66753
ELEMENT_SET_NO = 999
REV_AT_EPOCH   = 336
BSTAR          = .27406214E-3
MEAN_MOTION_DOT = .5406E-4
MEAN_MOTION_DDOT = 0

CCSDS_OMM_VERS = 2.0
CREATION_DATE  = 
ORIGINATOR     = 

OBJECT_NAME    = ICEYE-X61
OBJECT_ID      = 2025-276CS
CENTER_NAME    = EARTH
REF_FRAME      = TEME
TIME_SYSTEM    = UTC
MEAN_ELEMENT_THEORY = SGP/SGP4

EPOCH          = 2025-12-20T15:29:10.229856
MEAN_MOTION    = 15.17826457
ECCENTRICITY   = .00020566
INCLINATION    = 97.4416
RA_OF_ASC_NODE = 66.2854
ARG_OF_PERICENTER = 202.4059
MEAN_ANOMALY   = 157.7086

EPHEMERIS_TYPE = 0
CLASSIFICATION_TYPE = U
NORAD_CAT_ID   = 66754
ELEMENT_SET_NO = 999
REV_AT_EPOCH   = 332
BSTAR          = .16616989E-3
MEAN_MOTION_DOT = .3295E-4
MEAN_MOTION_DDOT = 0

CCSDS_OMM_VERS = 2.0
CREATION_DATE  = 
ORIGINATOR     = 

OBJECT_NAME    = ICEYE-X62
OBJECT_ID      = 2025-276CT
CENTER_NAME    = EARTH
REF_FRAME      = TEME
TIME_SYSTEM    = UTC
MEAN_ELEMENT_THEORY = SGP/SGP4

EPOCH          = 2025-12-20T15:34:43.491072
MEAN_MOTION    = 15.17600223
ECCENTRICITY   = .00008246
INCLINATION    = 97.4418
RA_OF_ASC_NODE = 66.2796
ARG_OF_PERICENTER = 248.0203
MEAN_ANOMALY   = 112.0944

EPHEMERIS_TYPE = 0
CLASSIFICATION_TYPE = U
NORAD_CAT_ID   = 66755
ELEMENT_SET_NO = 999
REV_AT_EPOCH   = 332
BSTAR          = .17662282E-3
MEAN_MOTION_DOT = .3483E-4
MEAN_MOTION_DDOT = 0

CCSDS_OMM_VERS = 2.0
CREATION_DATE  = 
ORIGINATOR     = 

OBJECT_NAME    = TRANSPORTER-15 CU
OBJECT_ID      = 2025-276CU
CENTER_NAME    = EARTH
REF_FRAME      = TEME
TIME_SYSTEM    = UTC
MEAN_ELEMENT_THEORY = SGP/SGP4

EPOCH          = 2025-12-20T18:37:41.478528
MEAN_MOTION    = 15.17919312
ECCENTRICITY   = .00013564
INCLINATION    = 97.4425
RA_OF_ASC_NODE = 66.4198
ARG_OF_PERICENTER = 161.4312
MEAN_ANOMALY   = 198.6972

EPHEMERIS_TYPE = 0
CLASSIFICATION_TYPE = U
NORAD_CAT_ID   = 66756
ELEMENT_SET_NO = 999
REV_AT_EPOCH   = 334
BSTAR          = .28376318E-3
MEAN_MOTION_DOT = .569E-4
MEAN_MOTION_DDOT = 0

CCSDS_OMM_VERS = 2.0
CREATION_DATE  = 
ORIGINATOR     = 

OBJECT_NAME    = TRANSPORTER-15 CV
OBJECT_ID      = 2025-276CV
CENTER_NAME    = EARTH
REF_FRAME      = TEME
TIME_SYSTEM    = UTC
MEAN_ELEMENT_THEORY = SGP/SGP4

EPOCH          = 2025-12-20T18:35:55.269600
MEAN_MOTION    = 15.18033964
ECCENTRICITY   = .00015005
INCLINATION    = 97.4433
RA_OF_ASC_NODE = 66.4244
ARG_OF_PERICENTER = 161.7349
MEAN_ANOMALY   = 198.3939

EPHEMERIS_TYPE = 0
CLASSIFICATION_TYPE = U
NORAD_CAT_ID   = 66757
ELEMENT_SET_NO = 999
REV_AT_EPOCH   = 334
BSTAR          = .26115958E-3
MEAN_MOTION_DOT = .5248E-4
MEAN_MOTION_DDOT = 0

CCSDS_OMM_VERS = 2.0
CREATION_DATE  = 
ORIGINATOR     = 

OBJECT_NAME    = TRANSPORTER-15 CW
OBJECT_ID      = 2025-276CW
CENTER_NAME    = EARTH
REF_FRAME      = TEME
TIME_SYSTEM    = UTC
MEAN_ELEMENT_THEORY = SGP/SGP4

EPOCH          = 2025-12-20T18:35:32.526528
MEAN_MOTION    = 15.18042688
ECCENTRICITY   = .00011629
INCLINATION    = 97.4402
RA_OF_ASC_NODE = 66.4156
ARG_OF_PERICENTER = 139.7140
MEAN_ANOMALY   = 220.4180

EPHEMERIS_TYPE = 0
CLASSIFICATION_TYPE = U
NORAD_CAT_ID   = 66758
ELEMENT_SET_NO = 999
REV_AT_EPOCH   = 334
BSTAR          = .25738527E-3
MEAN_MOTION_DOT = .5173E-4
MEAN_MOTION_DDOT = 0

